NORAD_CAT_ID,OBJECT_NAME,OBJECT_TYPE,EPOCH,MEAN_MOTION,ECCENTRICITY,INCLINATION,RA_OF_ASC_NODE,ARG_OF_PERICENTER,MEAN_ANOMALY,BSTAR,MEAN_MOTION_DOT,MEAN_MOTION_DDOT,TLE_LINE0,TLE_LINE1,TLE_LINE2,SEMIMAJOR_AXIS,PERIOD,APOGEE,PERIGEE,DECAYED
52663.0,STARLINK-4037,PAYLOAD,2023-04-02 13:51:16,15.08841275,0.0001008,53.215,287.024,83.1814,276.9293,0.00068877,0.00010691,0.0,0 STARLINK-4037,1 52663U 22053H   23092.57727370  .00010691  00000-0  68877-3 0  9994,2 52663  53.2150 287.0240 0001008  83.1814 276.9293 15.08841275 49199,6917.876,95.437,540.439,539.044,0.0
52663.0,STARLINK-4037,PAYLOAD,2023-04-02 20:12:48,15.0885095,0.0001014,53.2154,285.8351,86.7449,273.3659,0.00080219,0.00012506,0.0,0 STARLINK-4037,1 52663U 22053H   23092.84223124  .00012506  00000-0  80219-3 0  9993,2 52663  53.2154 285.8351 0001014  86.7449 273.3659 15.08850950 49234,6917.847,95.437,540.413,539.01,0.0
52663.0,STARLINK-4037,PAYLOAD,2023-04-02 23:23:34,15.08856422,0.0001006,53.2141,285.2391,81.3647,278.7459,0.00085561,0.00013361,0.0,0 STARLINK-4037,1 52663U 22053H   23092.97470926  .00013361  00000-0  85561-3 0  9996,2 52663  53.2141 285.2391 0001006  81.3647 278.7459 15.08856422 49259,6917.83,95.437,540.391,538.999,0.0
52663.0,STARLINK-4037,PAYLOAD,2023-04-03 05:45:07,15.08849479,8.67e-05,53.2145,284.0503,83.3282,276.7809,0.00051939,7.99e-05,0.0,0 STARLINK-4037,1 52663U 22053H   23093.23967063  .00007990  00000-0  51939-3 0  9992,2 52663  53.2145 284.0503 0000867  83.3282 276.7809 15.08849479 49291,6917.851,95.437,540.316,539.117,0.0
52663.0,STARLINK-4037,PAYLOAD,2023-04-03 21:38:58,15.08849278,9.54e-05,53.2149,281.0769,89.5292,270.5809,0.00056195,8.669e-05,0.0,0 STARLINK-4037,1 52663U 22053H   23093.90207056  .00008669  00000-0  56195-3 0  9998,2 52663  53.2149 281.0769 0000954  89.5292 270.5809 15.08849278 49392,6917.852,95.437,540.377,539.057,0.0
52663.0,STARLINK-4037,PAYLOAD,2023-04-04 11:57:27,15.08845677,0.0001264,53.2144,278.4,88.0087,272.105,0.00048708,7.474e-05,0.0,0 STARLINK-4037,1 52663U 22053H   23094.49823258  .00007474  00000-0  48708-3 0  9995,2 52663  53.2144 278.4000 0001264  88.0087 272.1050 15.08845677 49481,6917.863,95.437,540.602,538.854,0.0
52663.0,STARLINK-4037,PAYLOAD,2023-04-04 21:29:45,15.08851682,0.0001272,53.2137,276.6151,87.697,272.4168,0.00052573,8.092e-05,0.0,0 STARLINK-4037,1 52663U 22053H   23094.89566988  .00008092  00000-0  52573-3 0  9995,2 52663  53.2137 276.6151 0001272  87.6970 272.4168 15.08851682 49548,6917.845,95.437,540.59,538.83,0.0
52663.0,STARLINK-4037,PAYLOAD,2023-04-05 11:48:14,15.08848924,0.0001915,53.2095,273.9378,88.1977,271.9234,0.00033802,5.097e-05,0.0,0 STARLINK-4037,1 52663U 22053H   23095.49183059  .00005097  00000-0  33802-3 0  9992,2 52663  53.2095 273.9378 0001915  88.1977 271.9234 15.08848924 49632,6917.853,95.437,541.043,538.393,0.0
52663.0,STARLINK-4037,PAYLOAD,2023-04-05 18:09:46,15.08840969,0.0001209,53.2126,272.749,85.7352,274.3778,0.00010741,1.422e-05,0.0,0 STARLINK-4037,1 52663U 22053H   23095.75679192  .00001422  00000-0  10741-3 0  9994,2 52663  53.2126 272.7490 0001209  85.7352 274.3778 15.08840969 49670,6917.877,95.437,540.579,538.906,0.0
52663.0,STARLINK-4037,PAYLOAD,2023-04-06 11:39:01,15.08839648,0.0001271,53.2146,269.4781,89.643,270.4707,5.1707e-05,5.35e-06,0.0,0 STARLINK-4037,1 52663U 22053H   23096.48543328  .00000535  00000-0  51707-4 0  9998,2 52663  53.2146 269.4781 0001271  89.6430 270.4707 15.08839648 49780,6917.881,95.438,540.626,538.867,0.0
52663.0,STARLINK-4037,PAYLOAD,2023-04-06 18:00:33,15.08843783,0.0001558,53.212,268.2867,93.8309,266.2861,6.7602e-05,7.88e-06,0.0,0 STARLINK-4037,1 52663U 22053H   23096.75039106  .00000788  00000-0  67602-4 0  9993,2 52663  53.2120 268.2867 0001558  93.8309 266.2861 15.08843783 49828,6917.869,95.437,540.812,538.656,0.0
52663.0,STARLINK-4037,PAYLOAD,2023-04-07 11:29:48,15.08838455,0.0001217,53.2142,265.0165,92.0902,268.0229,5.9037e-05,6.52e-06,0.0,0 STARLINK-4037,1 52663U 22053H   23097.47903471  .00000652  00000-0  59037-4 0  9991,2 52663  53.2142 265.0165 0001217  92.0902 268.0229 15.08838455 49930,6917.885,95.438,540.592,538.908,0.0
52663.0,STARLINK-4037,PAYLOAD,2023-04-08 11:20:35,15.08836834,0.0001167,53.2135,260.5554,96.0628,264.0498,8.0268e-05,9.9e-06,0.0,0 STARLINK-4037,1 52663U 22053H   23098.47263698  .00000990  00000-0  80268-4 0  9997,2 52663  53.2135 260.5554 0001167  96.0628 264.0498 15.08836834 50088,6917.89,95.438,540.562,538.948,0.0
52663.0,STARLINK-4037,PAYLOAD,2023-04-08 17:42:08,15.08838106,0.0001187,53.2163,259.3692,91.3593,268.7535,0.00013306,1.83e-05,0.0,0 STARLINK-4037,1 52663U 22053H   23098.73759584  .00001830  00000-0  13306-3 0  9992,2 52663  53.2163 259.3692 0001187  91.3593 268.7535 15.08838106 50121,6917.886,95.438,540.572,538.93,0.0
52663.0,STARLINK-4037,PAYLOAD,2023-04-09 03:14:27,15.08826921,8.65e-05,53.2153,257.5819,84.1579,275.9512,-0.00012512,-2.278e-05,0.0,0 STARLINK-4037,1 52663U 22053H   23099.13504108 -.00002278  00000-0 -12512-3 0  9994,2 52663  53.2153 257.5819 0000865  84.1579 275.9512 15.08826921 50180,6917.92,95.438,540.384,539.187,0.0
52663.0,STARLINK-4037,PAYLOAD,2023-04-09 11:11:23,15.088281,9.75e-05,53.2152,256.0961,93.1482,266.9621,-2.0549e-05,-6.15e-06,0.0,0 STARLINK-4037,1 52663U 22053H   23099.46624786 -.00000615  00000-0 -20549-4 0  9998,2 52663  53.2152 256.0961 0000975  93.1482 266.9621 15.08828100 50234,6917.917,95.438,540.456,539.107,0.0
52663.0,STARLINK-4037,PAYLOAD,2023-04-09 19:08:18,15.08840178,9.91e-05,53.2157,254.6087,94.2562,265.8543,7.7619e-05,9.48e-06,0.0,0 STARLINK-4037,1 52663U 22053H   23099.79743871  .00000948  00000-0  77619-4 0  9998,2 52663  53.2157 254.6087 0000991  94.2562 265.8543 15.08840178 50286,6917.88,95.438,540.43,539.059,0.0
52663.0,STARLINK-4037,PAYLOAD,2023-04-10 11:02:09,15.08844532,0.0001138,53.2156,251.6348,94.2281,265.8841,0.00011274,1.507e-05,0.0,0 STARLINK-4037,1 52663U 22053H   23100.45983715  .00001507  00000-0  11274-3 0  9993,2 52663  53.2156 251.6348 0001138  94.2281 265.8841 15.08844532 50384,6917.867,95.437,540.519,538.944,0.0
52663.0,STARLINK-4037,PAYLOAD,2023-04-10 20:34:27,15.08857684,0.0001076,53.2155,249.8495,95.5017,264.6098,0.00019687,2.848e-05,0.0,0 STARLINK-4037,1 52663U 22053H   23100.85726414  .00002848  00000-0  19687-3 0  9993,2 52663  53.2155 249.8495 0001076  95.5017 264.6098 15.08857684 50447,6917.826,95.436,540.436,538.947,0.0
52663.0,STARLINK-4037,PAYLOAD,2023-04-11 09:17:34,15.08834176,0.0001153,53.2156,247.4722,85.847,274.2654,9.7152e-05,1.258e-05,0.0,0 STARLINK-4037,1 52663U 22053H   23101.38720002  .00001258  00000-0  97152-4 0  9997,2 52663  53.2156 247.4722 0001153  85.8470 274.2654 15.08834176 50521,6917.898,95.438,540.561,538.966,0.0
52663.0,STARLINK-4037,PAYLOAD,2023-04-11 12:28:20,15.08837536,0.0001324,53.2149,246.8766,88.2681,271.8463,7.4007e-05,8.9e-06,0.0,0 STARLINK-4037,1 52663U 22053H   23101.51967895  .00000890  00000-0  74007-4 0  9990,2 52663  53.2149 246.8766 0001324  88.2681 271.8463 15.08837536 50541,6917.888,95.438,540.669,538.837,0.0
52663.0,STARLINK-4037,PAYLOAD,2023-04-11 18:49:52,15.08848361,0.000125,53.214,245.6856,96.4918,263.6216,0.00017462,2.493e-05,0.0,0 STARLINK-4037,1 52663U 22053H   23101.78463245  .00002493  00000-0  17462-3 0  9991,2 52663  53.2140 245.6856 0001250  96.4918 263.6216 15.08848361 50588,6917.855,95.437,540.585,538.855,0.0
52663.0,STARLINK-4037,PAYLOAD,2023-04-12 02:46:48,15.0883727,0.000111,53.2153,244.2007,91.7014,268.4105,-2.0287e-05,-6.11e-06,0.0,0 STARLINK-4037,1 52663U 22053H   23102.11583753 -.00000611  00000-0 -20287-4 0  9998,2 52663  53.2153 244.2007 0001110  91.7014 268.4105 15.08837270 50638,6917.889,95.438,540.522,538.986,0.0
52663.0,STARLINK-4037,PAYLOAD,2023-04-13 08:59:08,15.08844238,0.0001635,53.2132,238.5515,85.2335,274.8844,0.00019824,2.869e-05,0.0,0 STARLINK-4037,1 52663U 22053H   23103.37439877  .00002869  00000-0  19824-3 0  9993,2 52663  53.2132 238.5515 0001635  85.2335 274.8844 15.08844238 50825,6917.867,95.437,540.864,538.601,0.0
52663.0,STARLINK-4037,PAYLOAD,2023-04-13 15:20:40,15.0885145,0.0001485,53.2135,237.3594,101.354,258.7619,0.00034584,5.222e-05,0.0,0 STARLINK-4037,1 52663U 22053H   23103.63935465  .00005222  00000-0  34584-3 0  9992,2 52663  53.2135 237.3594 0001485 101.3540 258.7619 15.08851450 50862,6917.845,95.437,540.738,538.683,0.0
52663.0,STARLINK-4037,PAYLOAD,2023-04-14 12:00:41,15.08845099,0.0001246,53.2134,233.4969,94.8942,265.2193,0.00022202,3.248e-05,0.0,0 STARLINK-4037,1 52663U 22053H   23104.50047780  .00003248  00000-0  22202-3 0  9993,2 52663  53.2134 233.4969 0001246  94.8942 265.2193 15.08845099 50997,6917.865,95.437,540.592,538.868,0.0
52663.0,STARLINK-4037,PAYLOAD,2023-04-14 19:57:36,15.0886003,0.0001495,53.2129,232.0065,107.5705,252.5451,0.00043144,6.589e-05,0.0,0 STARLINK-4037,1 52663U 22053H   23104.83167000  .00006589  00000-0  43144-3 0  9996,2 52663  53.2129 232.0065 0001495 107.5705 252.5451 15.08860030 51043,6917.819,95.436,540.718,538.65,0.0
52663.0,STARLINK-4037,PAYLOAD,2023-04-15 13:26:51,15.08830405,0.0001326,53.2135,228.735,120.2756,239.8367,-0.00014183,-2.544e-05,0.0,0 STARLINK-4037,1 52663U 22053H   23105.56032214 -.00002544  00000-0 -14183-3 0  9995,2 52663  53.2135 228.7350 0001326 120.2756 239.8367 15.08830405 51159,6917.91,95.438,540.692,538.857,0.0
52663.0,STARLINK-4037,PAYLOAD,2023-04-15 18:13:01,15.08837164,9.86e-05,53.2152,227.8451,107.919,252.191,0.00080504,0.00012547,0.0,0 STARLINK-4037,1 52663U 22053H   23105.75904240  .00012547  00000-0  80504-3 0  9995,2 52663  53.2152 227.8451 0000986 107.9190 252.1910 15.08837164 51189,6917.889,95.438,540.436,539.072,0.0
52663.0,STARLINK-4037,PAYLOAD,2023-04-16 00:34:33,15.08846907,9.51e-05,53.2153,226.6557,110.033,250.0765,0.001423,0.00022436,0.0,0 STARLINK-4037,1 52663U 22053H   23106.02400308  .00022436  00000-0  14230-2 0  9992,2 52663  53.2153 226.6557 0000951 110.0330 250.0765 15.08846907 51222,6917.859,95.437,540.382,539.066,0.0
